QIANFAN-60              
1 62790U 25016F   25221.55675648  .00000157  00000+0  22417-3 0  9997
2 62790  88.9817 116.0247 0015604 354.0944   6.0020 13.50958876 30321
QIANFAN-61              
1 62791U 25016G   25221.56931138  .00000128  00000+0  18002-3 0  9991
2 62791  88.9885 116.0961 0014994 353.0947   6.9995 13.50964502 30348
QIANFAN-62              
1 62792U 25016H   25222.16577852  .00000124  00000+0  17422-3 0  9999
2 62792  88.9831 115.9710 0016327 351.0047   9.0809 13.50958644 30417
QIANFAN-63              
1 62793U 25016J   25222.17815247  .00000141  00000+0  20004-3 0  9993
2 62793  88.9837 115.9100 0016293 355.5165   4.5837 13.50955741 30459
QIANFAN-64              
1 62794U 25016K   25222.16987237  .00000135  00000+0  19129-3 0  9991
2 62794  88.9824 115.9077 0013922 350.5142   9.5744 13.50958243 30446
QIANFAN-65              
1 62795U 25016L   25221.56100598  .00000147  00000+0  20914-3 0  9999
2 62795  88.9821 115.9978 0014243 353.9376   6.1601 13.50962184 30340
QIANFAN-66              
1 62796U 25016M   25222.18221092  .00000140  00000+0  19875-3 0  9999
2 62796  88.9840 115.8796 0015123 347.1855  12.8909 13.50957338 30478
QIANFAN-67              
1 62797U 25016N   25222.18641108  .00000139  00000+0  19719-3 0  9999
2 62797  88.9830 115.9170 0015351 353.9224   6.1739 13.50966072 30442
QIANFAN-68              
1 62798U 25016P   25222.19047619  .00000138  00000+0  19517-3 0  9993
2 62798  88.9833 115.9603 0015910 351.9148   8.1744 13.50963483 30420
QIANFAN-69              
1 62799U 25016Q   25222.19455679  .00000127  00000+0  17768-3 0  9997
2 62799  88.9812 115.8532 0016110 352.8143   7.2775 13.50959094 30467
QIANFAN-70              
1 62800U 25016R   25221.54448740  .00000145  00000+0  20584-3 0  9999
2 62800  88.9834 116.0318 0015413 345.4345  14.6360 13.50962754 30331
QIANFAN-71              
1 62801U 25016S   25222.13297715  .00000133  00000+0  18782-3 0  9994
2 62801  88.9827 115.9586 0016160 356.4547   3.6486 13.50962657 30413
QIANFAN-72              
1 62802U 25016T   25221.53620729  .00000136  00000+0  19230-3 0  9995
2 62802  88.9818 116.0406 0019847   3.0907 357.0363 13.50957970 30329
QIANFAN-73              
1 63159U 25046A   25221.58393169  .00000143  00000+0  20320-3 0  9994
2 63159  88.9863 332.9233 0016865 123.6106 236.6658 13.50960520 30514
QIANFAN-74              
1 63160U 25046B   25222.23407369  .00000170  00000+0  24533-3 0  9997
2 63160  88.9863 332.7452 0001962 105.2697 254.8671 13.50965547 30667
QIANFAN-75              
1 63161U 25046C   25222.22177666  .00000164  00000+0  23458-3 0  9999
2 63161  88.9864 332.9782 0018028 124.9691 235.3157 13.50961772 30535
QIANFAN-76              
1 63162U 25046D   25221.55091953  .00000159  00000+0  22774-3 0  9993
2 63162  88.9863 333.0281 0015560 126.9383 233.3196 13.50957884 30450
QIANFAN-77              
1 63163U 25046E   25222.18674036  .00000374  00000+0  26261-3 0  9997
2 63163  88.9861 331.9913 0016977 108.8911 251.4108 13.96011599 31074
QIANFAN-78              
1 63164U 25046F   25221.59218682  .00000165  00000+0  23667-3 0  9998
2 63164  88.9863 332.8893 0016911 129.1349 231.1309 13.50961172 30532
QIANFAN-79              
1 63165U 25046G   25222.21341741  .00000163  00000+0  23290-3 0  9992
2 63165  88.9867 332.9283 0016631 126.0103 234.2592 13.50963541 30578
QIANFAN-80              
1 63166U 25046H   25221.56340097  .00000171  00000+0  24531-3 0  9991
2 63166  88.9864 332.7052 0015548 131.2846 228.9647 13.50963459 30632
QIANFAN-81              
1 63167U 25046J   25221.54279533  .00000145  00000+0  20586-3 0  9993
2 63167  88.9864 332.7758 0016662 121.2147 239.0639 13.50962208 30586
QIANFAN-82              
1 63168U 25046K   25221.57558525  .00000151  00000+0  21521-3 0  9995
2 63168  88.9864 332.8159 0014730 127.8421 232.4066 13.50959103 30574
QIANFAN-83              
1 63169U 25046L   25222.17089734  .00000201  00000+0  24498-3 0  9996
2 63169  88.9863 332.7752 0016125 119.4338 240.8431 13.61933940 30657
QIANFAN-84              
1 63170U 25046M   25222.19693996  .00000173  00000+0  24904-3 0  9991
2 63170  88.9864 332.8853 0017756 123.4723 236.8129 13.50966421 30586
QIANFAN-85              
1 63171U 25046N   25221.60038969  .00000170  00000+0  24400-3 0  9998
2 63171  88.9863 332.8187 0015090 126.8875 233.3662 13.50960207 30579
QIANFAN-86              
1 63172U 25046P   25222.20113920  .00000166  00000+0  23867-3 0  9998
2 63172  88.9866 332.6164 0012953 128.7410 231.4901 13.50960773 30738
QIANFAN-87              
1 63173U 25046Q   25222.24630500 -.00000099  00000+0 -17164-3 0  9991
2 63173  88.9857 332.7282 0013637 124.4364 235.8078 13.50957036 30676
QIANFAN-88              
1 63174U 25046R   25221.59634026  .00000168  00000+0  24116-3 0  9996
2 63174  88.9864 332.7462 0013972 133.0214 227.2110 13.50964672 30617
QIANFAN-89              
1 63175U 25046S   25221.55918784  .00000162  00000+0  23132-3 0  9990
2 63175  88.9864 332.9390 0018401 125.6241 234.6628 13.50965372 30501
QIANFAN-90              
1 63176U 25046T   25222.18050428  .00000170  00000+0  24405-3 0  9996
2 63176  88.9864 332.8475 0015380 122.1071 238.1575 13.50964310 30603
